{
"type": "FeatureCollection",
                                                                                
"features": [
{ "type": "Feature", "properties": { "Neighborho": "Lower East Side", "Total Sq F": "1380", "Address 1": "77 E 4th St", "Zip": "10003", "addrtype": "street_address", "addrlocat": "ROOFTOP" }, "geometry": { "type": "Point", "coordinates": [ 986988.15953706915, 204039.30801839981 ] } },
{ "type": "Feature", "properties": { "Neighborho": "Lower East Side", "Total Sq F": "1694", "Address 1": "73 E 4th St", "Zip": "10003", "addrtype": "street_address", "addrlocat": "ROOFTOP" }, "geometry": { "type": "Point", "coordinates": [ 986945.47261144186, 204064.44208297128 ] } },
{ "type": "Feature", "properties": { "Neighborho": "Lower East Side", "Total Sq F": "1725", "Address 1": "71 E 4th St", "Zip": "10003", "addrtype": "street_address", "addrlocat": "ROOFTOP" }, "geometry": { "type": "Point", "coordinates": [ 986923.85187206289, 204078.28427156899 ] } },
{ "type": "Feature", "properties": { "Neighborho": "Lower East Side", "Total Sq F": "1896", "Address 1": "67 E 4th St", "Zip": "10003", "addrtype": "street_address", "addrlocat": "ROOFTOP" }, "geometry": { "type": "Point", "coordinates": [ 986878.94796644093, 204101.23222315911 ] } },
{ "type": "Feature", "properties": { "Neighborho": "Lower East Side", "Total Sq F": "2208", "Address 1": "65 E 4th St", "Zip": "10003", "addrtype": "street_address", "addrlocat": "ROOFTOP" }, "geometry": { "type": "Point", "coordinates": [ 986857.05024627747, 204113.98144831762 ] } },
{ "type": "Feature", "properties": { "Neighborho": "Lower East Side", "Total Sq F": "1694", "Address 1": "63 E 4th St", "Zip": "10003", "addrtype": "street_address", "addrlocat": "ROOFTOP" }, "geometry": { "type": "Point", "coordinates": [ 986828.50264369312, 204106.54604652687 ] } },
{ "type": "Feature", "properties": { "Neighborho": "Lower East Side", "Total Sq F": "1408", "Address 1": "27 E 3rd St", "Zip": "10003", "addrtype": "street_address", "addrlocat": "ROOFTOP" }, "geometry": { "type": "Point", "coordinates": [ 986952.15792658145, 203765.69139559992 ] } },
{ "type": "Feature", "properties": { "Neighborho": "Lower East Side", "Total Sq F": "1656", "Address 1": "25 E 3rd St", "Zip": "10003", "addrtype": "street_address", "addrlocat": "ROOFTOP" }, "geometry": { "type": "Point", "coordinates": [ 986933.86242562346, 203784.6345779947 ] } },
{ "type": "Feature", "properties": { "Neighborho": "Lower East Side", "Total Sq F": "1650", "Address 1": "23 E 3rd St", "Zip": "10003", "addrtype": "street_address", "addrlocat": "ROOFTOP" }, "geometry": { "type": "Point", "coordinates": [ 986913.35017351853, 203798.11256608559 ] } },
{ "type": "Feature", "properties": { "Neighborho": "Lower East Side", "Total Sq F": "1804", "Address 1": "60 E 4th St", "Zip": "10003", "addrtype": "street_address", "addrlocat": "ROOFTOP" }, "geometry": { "type": "Point", "coordinates": [ 986815.07229038177, 203989.74009546012 ] } },
{ "type": "Feature", "properties": { "Neighborho": "Lower East Side", "Total Sq F": "1422", "Address 1": "83 2nd Ave", "Zip": "10003", "addrtype": "street_address", "addrlocat": "ROOFTOP" }, "geometry": { "type": "Point", "coordinates": [ 987196.58921036159, 204055.36298461238 ] } },
{ "type": "Feature", "properties": { "Neighborho": "Lower East Side", "Total Sq F": "1311", "Address 1": "9 E 3rd St", "Zip": "10003", "addrtype": "street_address", "addrlocat": "ROOFTOP" }, "geometry": { "type": "Point", "coordinates": [ 986755.63111068774, 203874.96961869544 ] } },
{ "type": "Feature", "properties": { "Neighborho": "Lower East Side", "Total Sq F": "1564", "Address 1": "89 E 3rd St", "Zip": "10003", "addrtype": "street_address", "addrlocat": "ROOFTOP" }, "geometry": { "type": "Point", "coordinates": [ 987611.87869739998, 203408.72943113933 ] } },
{ "type": "Feature", "properties": { "Neighborho": "Lower East Side", "Total Sq F": "1042", "Address 1": "21 E 3rd St", "Zip": "10003", "addrtype": "street_address", "addrlocat": "ROOFTOP" }, "geometry": { "type": "Point", "coordinates": [ 986870.50075048313, 203784.77338906933 ] } },
{ "type": "Feature", "properties": { "Neighborho": "Lower East Side", "Total Sq F": "1508", "Address 1": "56 E 4th St", "Zip": "10003", "addrtype": "street_address", "addrlocat": "ROOFTOP" }, "geometry": { "type": "Point", "coordinates": [ 986761.71693766455, 203990.46317922964 ] } },
{ "type": "Feature", "properties": { "Neighborho": "Lower East Side", "Total Sq F": "2706", "Address 1": "75 E 4th St", "Zip": "10003", "addrtype": "street_address", "addrlocat": "ROOFTOP" }, "geometry": { "type": "Point", "coordinates": [ 986962.49288963317, 204045.86309589329 ] } },
{ "type": "Feature", "properties": { "Neighborho": "Lower East Side", "Total Sq F": "1702", "Address 1": "69 E 4th St", "Zip": "10003", "addrtype": "street_address", "addrlocat": "ROOFTOP" }, "geometry": { "type": "Point", "coordinates": [ 986901.12283896573, 204088.84737910901 ] } },
{ "type": "Feature", "properties": { "Neighborho": "Lower East Side", "Total Sq F": "1694", "Address 1": "58 E 4th St", "Zip": "10003", "addrtype": "street_address", "addrlocat": "ROOFTOP" }, "geometry": { "type": "Point", "coordinates": [ 986789.59972884401, 203995.60314716806 ] } },
{ "type": "Feature", "properties": { "Neighborho": "East Harlem", "Total Sq F": "6400", "Address 1": "2383 2nd Ave", "Zip": "10035", "addrtype": "street_address", "addrlocat": "ROOFTOP" }, "geometry": { "type": "Point", "coordinates": [ 1002164.156680597, 231154.91240211012 ] } },
{ "type": "Feature", "properties": { "Neighborho": "East Harlem", "Total Sq F": "6400", "Address 1": "2253 3rd Ave", "Zip": "10035", "addrtype": "street_address", "addrlocat": "ROOFTOP" }, "geometry": { "type": "Point", "coordinates": [ 1001785.4012268099, 231514.12508571171 ] } },
{ "type": "Feature", "properties": { "Neighborho": "East Harlem", "Total Sq F": "5250", "Address 1": "221 122nd St", "Zip": "10035", "addrtype": "street_address", "addrlocat": "ROOFTOP" }, "geometry": { "type": "Point", "coordinates": [ 1001914.3231823385, 231337.77112239707 ] } },
{ "type": "Feature", "properties": { "Neighborho": "East Harlem", "Total Sq F": "2555", "Address 1": "230 123rd St", "Zip": "10035", "addrtype": "street_address", "addrlocat": "ROOFTOP" }, "geometry": { "type": "Point", "coordinates": [ 1002149.6975441462, 231314.48051899095 ] } },
{ "type": "Feature", "properties": { "Neighborho": "Bedford Stuyvesant", "Total Sq F": "8000", "Address 1": "247 Herkimer Street", "Zip": "11216", "addrtype": "street_address", "addrlocat": "ROOFTOP" }, "geometry": { "type": "Point", "coordinates": [ 999525.31010727305, 186867.0030955277 ] } },
{ "type": "Feature", "properties": { "Neighborho": "East Harlem", "Total Sq F": "11863", "Address 1": "2 E 120th St", "Zip": "10035", "addrtype": "street_address", "addrlocat": "RANGE_INTERPOLATED" }, "geometry": { "type": "Point", "coordinates": [ 999595.79980960838, 231909.83895700218 ] } },
{ "type": "Feature", "properties": { "Neighborho": "East Harlem", "Total Sq F": "13020", "Address 1": "26 E 120th St", "Zip": "10035", "addrtype": "street_address", "addrlocat": "RANGE_INTERPOLATED" }, "geometry": { "type": "Point", "coordinates": [ 999985.24670788471, 231696.98885235202 ] } },
{ "type": "Feature", "properties": { "Neighborho": "Bowery", "Total Sq F": "10697", "Address 1": "227 Bowery", "Zip": "10002", "addrtype": "street_address", "addrlocat": "ROOFTOP" }, "geometry": { "type": "Point", "coordinates": [ 986236.06250563904, 202308.6630199565 ] } },
{ "type": "Feature", "properties": { "Neighborho": "Long Island City", "Total Sq F": "10406", "Address 1": "10-27 46th Ave", "Zip": "11101", "addrtype": "street_address", "addrlocat": "ROOFTOP" }, "geometry": { "type": "Point", "coordinates": [ 997630.98432789056, 211369.40347187311 ] } },
{ "type": "Feature", "properties": { "Neighborho": "Greenpoint", "Total Sq F": "15392", "Address 1": "211 Meserole Avenue\/ 120 Jewel Street", "Zip": "11222", "addrtype": "street_address", "addrlocat": "ROOFTOP" }, "geometry": { "type": "Point", "coordinates": [ 998753.64544841158, 204936.75273720056 ] } },
{ "type": "Feature", "properties": { "Neighborho": "Bronx", "Total Sq F": "18900", "Address 1": "990 Pelham Parkway South", "Zip": "10462", "addrtype": "street_address", "addrlocat": "RANGE_INTERPOLATED" }, "geometry": { "type": "Point", "coordinates": [ 1022902.1154953552, 251465.06268318035 ] } },
{ "type": "Feature", "properties": { "Neighborho": "Fleetwood Concourse Village", "Total Sq F": "1541", "Address 1": "380 E 166th St", "Zip": "10456", "addrtype": "street_address", "addrlocat": "ROOFTOP" }, "geometry": { "type": "Point", "coordinates": [ 1008584.2956968226, 241391.20632843138 ] } },
{ "type": "Feature", "properties": { "Neighborho": "Fleetwood-Concourse Village", "Total Sq F": "3219", "Address 1": "320 E 166th st", "Zip": "10456", "addrtype": "street_address", "addrlocat": "ROOFTOP" }, "geometry": { "type": "Point", "coordinates": [ 1008107.599930583, 241593.08521557544 ] } },
{ "type": "Feature", "properties": { "Neighborho": "Fleetwood-Concourse Village", "Total Sq F": "9882", "Address 1": "1109 Clay Ave", "Zip": "10456", "addrtype": "street_address", "addrlocat": "ROOFTOP" }, "geometry": { "type": "Point", "coordinates": [ 1008521.2644399238, 241629.05513799776 ] } },
{ "type": "Feature", "properties": { "Neighborho": "Fleetwood-Concourse Village", "Total Sq F": "2697", "Address 1": "275 E 168th st", "Zip": "10456", "addrtype": "street_address", "addrlocat": "ROOFTOP" }, "geometry": { "type": "Point", "coordinates": [ 1008201.3540082063, 243027.42683659439 ] } },
{ "type": "Feature", "properties": { "Neighborho": "Fleetwood-Concourse Village", "Total Sq F": "1794", "Address 1": "391 E 168th St", "Zip": "10456", "addrtype": "street_address", "addrlocat": "ROOFTOP" }, "geometry": { "type": "Point", "coordinates": [ 1009118.3747695639, 242640.25835353494 ] } },
{ "type": "Feature", "properties": { "Neighborho": "Fleetwood-Concourse Village", "Total Sq F": "2392", "Address 1": "393 E 168th St", "Zip": "10456", "addrtype": "street_address", "addrlocat": "RANGE_INTERPOLATED" }, "geometry": { "type": "Point", "coordinates": [ 1009133.0724898158, 242583.03607795967 ] } },
{ "type": "Feature", "properties": { "Neighborho": "University Heights", "Total Sq F": "4368", "Address 1": "1605 University Ave", "Zip": "10453", "addrtype": "street_address", "addrlocat": "ROOFTOP" }, "geometry": { "type": "Point", "coordinates": [ 1006290.9017069906, 247986.17949919464 ] } },
{ "type": "Feature", "properties": { "Neighborho": "University Heights", "Total Sq F": "8772", "Address 1": "1472 Montgomery Ave", "Zip": "10453", "addrtype": "street_address", "addrlocat": "ROOFTOP" }, "geometry": { "type": "Point", "coordinates": [ 1006133.0291480571, 248023.08960814655 ] } },
{ "type": "Feature", "properties": { "Neighborho": "University Heights", "Total Sq F": "9756", "Address 1": "1601 University Ave", "Zip": "10453", "addrtype": "street_address", "addrlocat": "RANGE_INTERPOLATED" }, "geometry": { "type": "Point", "coordinates": [ 1006209.5688278379, 247855.67267601826 ] } },
{ "type": "Feature", "properties": { "Neighborho": "University Heights", "Total Sq F": "6900", "Address 1": "1615 University Ave", "Zip": "10453", "addrtype": "street_address", "addrlocat": "ROOFTOP" }, "geometry": { "type": "Point", "coordinates": [ 1006390.9100575917, 248084.93338518788 ] } },
{ "type": "Feature", "properties": { "Neighborho": "University Heights", "Total Sq F": "5676", "Address 1": "1611 University Ave", "Zip": "10453", "addrtype": "street_address", "addrlocat": "RANGE_INTERPOLATED" }, "geometry": { "type": "Point", "coordinates": [ 1006380.2677908974, 248014.02349227798 ] } },
{ "type": "Feature", "properties": { "Neighborho": "University Heights", "Total Sq F": "10821", "Address 1": "1491 Montgomery Ave", "Zip": "10453", "addrtype": "street_address", "addrlocat": "ROOFTOP" }, "geometry": { "type": "Point", "coordinates": [ 1006110.8387716895, 248178.241133462 ] } },
{ "type": "Feature", "properties": { "Neighborho": "University Heights", "Total Sq F": "20694", "Address 1": "1669-75 University Ave", "Zip": "10453", "addrtype": "street_address", "addrlocat": "ROOFTOP" }, "geometry": { "type": "Point", "coordinates": [ 1006818.9918229494, 248476.80947278414 ] } },
{ "type": "Feature", "properties": { "Neighborho": "University Heights", "Total Sq F": "9790", "Address 1": "1665 Andrews Ave", "Zip": "10453", "addrtype": "street_address", "addrlocat": "ROOFTOP" }, "geometry": { "type": "Point", "coordinates": [ 1006588.4394012558, 248457.03091081037 ] } },
{ "type": "Feature", "properties": { "Neighborho": "University Heights", "Total Sq F": "6986", "Address 1": "120 West 176th St", "Zip": "10453", "addrtype": "street_address", "addrlocat": "ROOFTOP" }, "geometry": { "type": "Point", "coordinates": [ 1006717.3345608237, 248757.69255306944 ] } },
{ "type": "Feature", "properties": { "Neighborho": "High Bridge", "Total Sq F": "5447", "Address 1": "1655 Macombs Road", "Zip": "10453", "addrtype": "street_address", "addrlocat": "RANGE_INTERPOLATED" }, "geometry": { "type": "Point", "coordinates": [ 1007436.3652919475, 248244.68955516131 ] } },
{ "type": "Feature", "properties": { "Neighborho": "High Bridge", "Total Sq F": "5933", "Address 1": "1647 Macombs Road", "Zip": "10453", "addrtype": "street_address", "addrlocat": "ROOFTOP" }, "geometry": { "type": "Point", "coordinates": [ 1007424.9701181895, 248067.50107570211 ] } },
{ "type": "Feature", "properties": { "Neighborho": "High Bridge", "Total Sq F": "4658", "Address 1": "1665 Macombs Road", "Zip": "10453", "addrtype": "street_address", "addrlocat": "ROOFTOP" }, "geometry": { "type": "Point", "coordinates": [ 1007337.4697454342, 248202.73270099165 ] } },
{ "type": "Feature", "properties": { "Neighborho": "High Bridge", "Total Sq F": "3842", "Address 1": "1669 Macombs Road", "Zip": "10453", "addrtype": "street_address", "addrlocat": "ROOFTOP" }, "geometry": { "type": "Point", "coordinates": [ 1007355.1016944434, 248281.0457482858 ] } },
{ "type": "Feature", "properties": { "Neighborho": "Morris Heights", "Total Sq F": "13861", "Address 1": "2001 University Ave", "Zip": "10453", "addrtype": "street_address", "addrlocat": "ROOFTOP" }, "geometry": { "type": "Point", "coordinates": [ 1008836.3691893306, 250840.7773710707 ] } },
{ "type": "Feature", "properties": { "Neighborho": "Coney Island", "Total Sq F": "7080", "Address 1": "1901 Mermaid Ave", "Zip": "11224", "addrtype": "street_address", "addrlocat": "ROOFTOP" }, "geometry": { "type": "Point", "coordinates": [ 988115.63243770297, 149415.84257281004 ] } },
{ "type": "Feature", "properties": { "Neighborho": "Prospect Heights", "Total Sq F": "32160", "Address 1": "415 Flatbush Ave", "Zip": "11238", "addrtype": "street_address", "addrlocat": "ROOFTOP" }, "geometry": { "type": "Point", "coordinates": [ 993062.33095299418, 184176.76615341668 ] } },
{ "type": "Feature", "properties": { "Neighborho": "Long Island City", "Total Sq F": "8000", "Address 1": "43-10 11th Street", "Zip": "11101", "addrtype": "street_address", "addrlocat": "ROOFTOP" }, "geometry": { "type": "Point", "coordinates": [ 998473.20850021427, 213083.11829570748 ] } },
{ "type": "Feature", "properties": { "Neighborho": "Washington Heights", "Total Sq F": "5530", "Address 1": "500 West 159th Street", "Zip": "10032", "addrtype": "street_address", "addrlocat": "ROOFTOP" }, "geometry": { "type": "Point", "coordinates": [ 1000418.2411524523, 243202.49873990339 ] } },
{ "type": "Feature", "properties": { "Neighborho": "Washington Heights", "Total Sq F": "2290", "Address 1": "540 West 159th Street", "Zip": "10032", "addrtype": "street_address", "addrlocat": "ROOFTOP" }, "geometry": { "type": "Point", "coordinates": [ 1000007.8597334955, 243375.21574329049 ] } },
{ "type": "Feature", "properties": { "Neighborho": "Washington Heights", "Total Sq F": "2290", "Address 1": "542 West 159th Street", "Zip": "10032", "addrtype": "street_address", "addrlocat": "ROOFTOP" }, "geometry": { "type": "Point", "coordinates": [ 999982.79475917772, 243408.71847686276 ] } },
{ "type": "Feature", "properties": { "Neighborho": "East Village", "Total Sq F": "7221", "Address 1": "220 East 4th Street", "Zip": "10009", "addrtype": "street_address", "addrlocat": "ROOFTOP" }, "geometry": { "type": "Point", "coordinates": [ 988814.10018906964, 202848.94904995736 ] } },
{ "type": "Feature", "properties": { "Neighborho": "Carroll Gardens", "Total Sq F": "4405", "Address 1": "509-515 Court Street", "Zip": "11231", "addrtype": "street_address", "addrlocat": "ROOFTOP" }, "geometry": { "type": "Point", "coordinates": [ 984519.36707685806, 185315.15374272119 ] } },
{ "type": "Feature", "properties": { "Neighborho": "Upper West Side", "Total Sq F": "6270", "Address 1": "207 W 133rd St", "Zip": "10030", "addrtype": "street_address", "addrlocat": "ROOFTOP" }, "geometry": { "type": "Point", "coordinates": [ 999440.47436936502, 235994.08844307231 ] } },
{ "type": "Feature", "properties": { "Neighborho": "Long Island City", "Total Sq F": "3000", "Address 1": "46-01 5th Street", "Zip": "11101", "addrtype": "street_address", "addrlocat": "ROOFTOP" }, "geometry": { "type": "Point", "coordinates": [ 996728.14998061955, 211432.4256214959 ] } },
{ "type": "Feature", "properties": { "Neighborho": "Brownsville", "Total Sq F": "15320", "Address 1": "1381 East New York Avenue", "Zip": "11233", "addrtype": "street_address", "addrlocat": "ROOFTOP" }, "geometry": { "type": "Point", "coordinates": [ 1007429.3724697892, 183384.51872491775 ] } },
{ "type": "Feature", "properties": { "Neighborho": "Harlem", "Total Sq F": "16112", "Address 1": "2960 Fredrick Douglass Blvd", "Zip": "10039", "addrtype": "street_address", "addrlocat": "ROOFTOP" }, "geometry": { "type": "Point", "coordinates": [ 1001929.1084502757, 241662.2624374486 ] } },
{ "type": "Feature", "properties": { "Neighborho": "South Bronx", "Total Sq F": "10046", "Address 1": "1122 Franklin Ave", "Zip": "10456", "addrtype": "street_address", "addrlocat": "ROOFTOP" }, "geometry": { "type": "Point", "coordinates": [ 1010309.3412588593, 240986.7272685419 ] } },
{ "type": "Feature", "properties": { "Neighborho": "Bowery", "Total Sq F": "5027", "Address 1": "333 Bowery", "Zip": "10003", "addrtype": "street_address", "addrlocat": "ROOFTOP" }, "geometry": { "type": "Point", "coordinates": [ 986552.94964235974, 203726.19320212468 ] } },
{ "type": "Feature", "properties": { "Neighborho": "East New York", "Total Sq F": "39000", "Address 1": "515 Blake Ave", "Zip": "11207", "addrtype": "street_address", "addrlocat": "ROOFTOP" }, "geometry": { "type": "Point", "coordinates": [ 1011864.778881333, 182609.70983235503 ] } },
{ "type": "Feature", "properties": { "Neighborho": "Long Island City", "Total Sq F": "59000", "Address 1": "21-10 Borden Avenue", "Zip": "11101", "addrtype": "street_address", "addrlocat": "ROOFTOP" }, "geometry": { "type": "Point", "coordinates": [ 998204.66913696774, 208853.06727386703 ] } },
{ "type": "Feature", "properties": { "Neighborho": "Upper East Side", "Total Sq F": "1526", "Address 1": "331 E. 86th St", "Zip": "10028", "addrtype": "street_address", "addrlocat": "ROOFTOP" }, "geometry": { "type": "Point", "coordinates": [ 997989.35619894031, 222593.75383861572 ] } },
{ "type": "Feature", "properties": { "Neighborho": "Bushwick", "Total Sq F": "15120", "Address 1": "89-111 Porter Ave", "Zip": "11237", "addrtype": "street_address", "addrlocat": "RANGE_INTERPOLATED" }, "geometry": { "type": "Point", "coordinates": [ 1003972.8566531102, 197132.2773164004 ] } },
{ "type": "Feature", "properties": { "Neighborho": "Chelsea", "Total Sq F": "14260", "Address 1": "540 21st Street", "Zip": "10011", "addrtype": "street_address", "addrlocat": "ROOFTOP" }, "geometry": { "type": "Point", "coordinates": [ 982280.08783986943, 211409.33266508215 ] } },
{ "type": "Feature", "properties": { "Neighborho": "Chelsea", "Total Sq F": "5015", "Address 1": "227 West 27th St", "Zip": "10001", "addrtype": "street_address", "addrlocat": "ROOFTOP" }, "geometry": { "type": "Point", "coordinates": [ 985930.08362642198, 211366.35612389 ] } },
{ "type": "Feature", "properties": { "Neighborho": "West Farms", "Total Sq F": "21250", "Address 1": "999 E 178th Street", "Zip": "10460", "addrtype": "street_address", "addrlocat": "ROOFTOP" }, "geometry": { "type": "Point", "coordinates": [ 1017241.912006611, 245949.46695357325 ] } },
{ "type": "Feature", "properties": { "Neighborho": "Norwood", "Total Sq F": "10412", "Address 1": "2751 Grand Concourse", "Zip": "10468", "addrtype": "street_address", "addrlocat": "ROOFTOP" }, "geometry": { "type": "Point", "coordinates": [ 1013770.717056043, 255680.22698347253 ] } },
{ "type": "Feature", "properties": { "Neighborho": "Fordham Heights", "Total Sq F": "3000", "Address 1": "2698 Briggs Avenue", "Zip": "10458", "addrtype": "street_address", "addrlocat": "ROOFTOP" }, "geometry": { "type": "Point", "coordinates": [ 1014290.0124397428, 254954.04463447758 ] } },
{ "type": "Feature", "properties": { "Neighborho": "Fordham Heights", "Total Sq F": "3000", "Address 1": "2690 Briggs Avenue", "Zip": "10458", "addrtype": "street_address", "addrlocat": "ROOFTOP" }, "geometry": { "type": "Point", "coordinates": [ 1014274.7020534236, 254809.92945629332 ] } },
{ "type": "Feature", "properties": { "Neighborho": "Fordham Heights", "Total Sq F": "3000", "Address 1": "2694 Briggs Avenue", "Zip": "10458", "addrtype": "street_address", "addrlocat": "ROOFTOP" }, "geometry": { "type": "Point", "coordinates": [ 1014234.1656273161, 254912.18573542815 ] } },
{ "type": "Feature", "properties": { "Neighborho": "University Heights", "Total Sq F": "6026", "Address 1": "2285 Davidson Avenue", "Zip": "10468", "addrtype": "street_address", "addrlocat": "ROOFTOP" }, "geometry": { "type": "Point", "coordinates": [ 1010564.7274751458, 252324.13936640628 ] } },
{ "type": "Feature", "properties": { "Neighborho": "Fordham Heights", "Total Sq F": "5292", "Address 1": "2240 Walton Avenue", "Zip": "10453", "addrtype": "street_address", "addrlocat": "ROOFTOP" }, "geometry": { "type": "Point", "coordinates": [ 1011034.3948084033, 251601.80590815761 ] } },
{ "type": "Feature", "properties": { "Neighborho": "Fordham Heights", "Total Sq F": "8880", "Address 1": "2270 Walton Avenue", "Zip": "10453", "addrtype": "street_address", "addrlocat": "ROOFTOP" }, "geometry": { "type": "Point", "coordinates": [ 1011151.4058565417, 251852.96489456631 ] } },
{ "type": "Feature", "properties": { "Neighborho": "Bronx", "Total Sq F": "1380", "Address 1": "3058 Bailey Ave", "Zip": "10463", "addrtype": "street_address", "addrlocat": "ROOFTOP" }, "geometry": { "type": "Point", "coordinates": [ 1011186.6457358419, 258969.64476839954 ] } },
{ "type": "Feature", "properties": { "Neighborho": "Bronx", "Total Sq F": "1428", "Address 1": "3060 Bailey Ave", "Zip": "10463", "addrtype": "street_address", "addrlocat": "ROOFTOP" }, "geometry": { "type": "Point", "coordinates": [ 1011207.9042437362, 259001.36599687726 ] } },
{ "type": "Feature", "properties": { "Neighborho": "Bronx", "Total Sq F": "1925", "Address 1": "2690 Valentine Avenue", "Zip": "10458", "addrtype": "street_address", "addrlocat": "ROOFTOP" }, "geometry": { "type": "Point", "coordinates": [ 1013991.3534219428, 254907.62368710068 ] } },
{ "type": "Feature", "properties": { "Neighborho": "Bronx", "Total Sq F": "1925", "Address 1": "2674 Valentine Avenue", "Zip": "10458", "addrtype": "street_address", "addrlocat": "ROOFTOP" }, "geometry": { "type": "Point", "coordinates": [ 1013923.2157628259, 254760.71140224562 ] } },
{ "type": "Feature", "properties": { "Neighborho": "Bronx", "Total Sq F": "1925", "Address 1": "2666 Valentine Avenue", "Zip": "10458", "addrtype": "street_address", "addrlocat": "ROOFTOP" }, "geometry": { "type": "Point", "coordinates": [ 1013891.7771393574, 254684.89034844155 ] } },
{ "type": "Feature", "properties": { "Neighborho": "Bronx", "Total Sq F": "1925", "Address 1": "2670 Valentine Avenue", "Zip": "10458", "addrtype": "street_address", "addrlocat": "ROOFTOP" }, "geometry": { "type": "Point", "coordinates": [ 1013908.048766003, 254723.53022450284 ] } },
{ "type": "Feature", "properties": { "Neighborho": "West side", "Total Sq F": "2314", "Address 1": "424 West 47th", "Zip": "10036", "addrtype": "street_address", "addrlocat": "ROOFTOP" }, "geometry": { "type": "Point", "coordinates": [ 986600.82152649423, 216845.53460304911 ] } },
{ "type": "Feature", "properties": { "Neighborho": "Harlem", "Total Sq F": "14136", "Address 1": "2080 Lexington Ave", "Zip": "10035", "addrtype": "street_address", "addrlocat": "ROOFTOP" }, "geometry": { "type": "Point", "coordinates": [ 1001575.5252275121, 232509.52034403573 ] } },
{ "type": "Feature", "properties": { "Neighborho": "East New York", "Total Sq F": "4100", "Address 1": "544 Hemlock", "Zip": "11208", "addrtype": "street_address", "addrlocat": "ROOFTOP" }, "geometry": { "type": "Point", "coordinates": [ 1020520.5094672996, 185434.76296847122 ] } },
{ "type": "Feature", "properties": { "Neighborho": "Prospect Heights", "Total Sq F": "7800", "Address 1": "934 Carroll Street", "Zip": "11225", "addrtype": "street_address", "addrlocat": "ROOFTOP" }, "geometry": { "type": "Point", "coordinates": [ 995237.91407891887, 182726.27736544402 ] } },
{ "type": "Feature", "properties": { "Neighborho": "Crown Heights\/Bedsty", "Total Sq F": "10344", "Address 1": "561 Grand Ave", "Zip": "11238", "addrtype": "street_address", "addrlocat": "ROOFTOP" }, "geometry": { "type": "Point", "coordinates": [ 994824.09459288802, 186492.66825349044 ] } },
{ "type": "Feature", "properties": { "Neighborho": "Crown Heights", "Total Sq F": "7400", "Address 1": "1544 Park Place", "Zip": "11213", "addrtype": "street_address", "addrlocat": "ROOFTOP" }, "geometry": { "type": "Point", "coordinates": [ 1004733.8949536982, 184053.73673952566 ] } },
{ "type": "Feature", "properties": { "Neighborho": "Bay Ridge", "Total Sq F": "8700", "Address 1": "8224 Bay Parkway", "Zip": "11214", "addrtype": "street_address", "addrlocat": "ROOFTOP" }, "geometry": { "type": "Point", "coordinates": [ 986435.6204205649, 159326.33798316497 ] } },
{ "type": "Feature", "properties": { "Neighborho": "Greenpoint", "Total Sq F": "22482", "Address 1": "1205 Manhattan Ave", "Zip": "11222", "addrtype": "street_address", "addrlocat": "ROOFTOP" }, "geometry": { "type": "Point", "coordinates": [ 996543.72242543008, 208422.29428528075 ] } },
{ "type": "Feature", "properties": { "Neighborho": "Greenwich Village", "Total Sq F": "2164", "Address 1": "46 Barrow Street", "Zip": "10014", "addrtype": "street_address", "addrlocat": "ROOFTOP" }, "geometry": { "type": "Point", "coordinates": [ 982988.15043309866, 206042.24272032487 ] } },
{ "type": "Feature", "properties": { "Neighborho": "Greenwich Village", "Total Sq F": "2744", "Address 1": "16 Jones Street", "Zip": "10014", "addrtype": "street_address", "addrlocat": "ROOFTOP" }, "geometry": { "type": "Point", "coordinates": [ 983599.06213339465, 205927.30856340897 ] } },
{ "type": "Feature", "properties": { "Neighborho": "East Tremont", "Total Sq F": "25095", "Address 1": "785 Crotona Park North", "Zip": "10460", "addrtype": "street_address", "addrlocat": "RANGE_INTERPOLATED" }, "geometry": { "type": "Point", "coordinates": [ 1014268.693648817, 245591.75737913037 ] } },
{ "type": "Feature", "properties": { "Neighborho": "East New York", "Total Sq F": "16100", "Address 1": "330 Hinsdale Street", "Zip": "11207", "addrtype": "street_address", "addrlocat": "ROOFTOP" }, "geometry": { "type": "Point", "coordinates": [ 1012034.6991398088, 182266.74249465927 ] } },
{ "type": "Feature", "properties": { "Neighborho": "Bronx", "Total Sq F": "27785", "Address 1": "285 East 171st Street", "Zip": "10457", "addrtype": "street_address", "addrlocat": "ROOFTOP" }, "geometry": { "type": "Point", "coordinates": [ 1009113.2493968133, 244939.07571493398 ] } },
{ "type": "Feature", "properties": { "Neighborho": "Lower East Side", "Total Sq F": "5362", "Address 1": "301 Henry St", "Zip": "10002", "addrtype": "street_address", "addrlocat": "ROOFTOP" }, "geometry": { "type": "Point", "coordinates": [ 989070.11269261909, 199467.20860617707 ] } },
{ "type": "Feature", "properties": { "Neighborho": "Lower East Side", "Total Sq F": "10222", "Address 1": "466 Grand St", "Zip": "10002", "addrtype": "street_address", "addrlocat": "ROOFTOP" }, "geometry": { "type": "Point", "coordinates": [ 988807.11525574536, 199894.4445764111 ] } },
{ "type": "Feature", "properties": { "Neighborho": "East New York", "Total Sq F": "6356", "Address 1": "2640 Pitkin Ave", "Zip": "11208", "addrtype": "street_address", "addrlocat": "ROOFTOP" }, "geometry": { "type": "Point", "coordinates": [ 1019043.6982678021, 185162.19837492437 ] } },
{ "type": "Feature", "properties": { "Neighborho": "East Village", "Total Sq F": "1830", "Address 1": "743 East 9th Street and Avenue D", "Zip": "10009", "addrtype": "intersection", "addrlocat": "APPROXIMATE" }, "geometry": { "type": "Point", "coordinates": [ 991015.32495006546, 203143.00400832429 ] } },
{ "type": "Feature", "properties": { "Neighborho": "Manhattan", "Total Sq F": "2990", "Address 1": "310 E 3rd St", "Zip": "10009", "addrtype": "street_address", "addrlocat": "ROOFTOP" }, "geometry": { "type": "Point", "coordinates": [ 990020.35318726127, 201887.73674727374 ] } },
{ "type": "Feature", "properties": { "Neighborho": "Far Rockaway", "Total Sq F": "8735", "Address 1": "1915 seagirt", "Zip": "11691", "addrtype": "street_address", "addrlocat": "ROOFTOP" }, "geometry": { "type": "Point", "coordinates": [ 1052583.7248755582, 156088.05004270145 ] } },
{ "type": "Feature", "properties": { "Neighborho": "Far Rockaway", "Total Sq F": "8099", "Address 1": "155 beach 19th st", "Zip": "11691", "addrtype": "street_address", "addrlocat": "ROOFTOP" }, "geometry": { "type": "Point", "coordinates": [ 1052710.6774005981, 155898.04618668355 ] } },
{ "type": "Feature", "properties": { "Neighborho": "Far Rockaway", "Total Sq F": "8294", "Address 1": "1925 seagirt", "Zip": "11691", "addrtype": "street_address", "addrlocat": "RANGE_INTERPOLATED" }, "geometry": { "type": "Point", "coordinates": [ 1052328.7019520139, 156165.04595642322 ] } },
{ "type": "Feature", "properties": { "Neighborho": "Brighton Beach", "Total Sq F": "20000", "Address 1": "161 Corbin Place", "Zip": "11235", "addrtype": "street_address", "addrlocat": "ROOFTOP" }, "geometry": { "type": "Point", "coordinates": [ 997062.87754521321, 149742.61146138507 ] } },
{ "type": "Feature", "properties": { "Neighborho": "Brighton Beach", "Total Sq F": "11041", "Address 1": "3161 Brighton 6th St", "Zip": "11235", "addrtype": "street_address", "addrlocat": "ROOFTOP" }, "geometry": { "type": "Point", "coordinates": [ 995192.49109147547, 148942.15117591847 ] } },
{ "type": "Feature", "properties": { "Neighborho": "Coney Island", "Total Sq F": "10041", "Address 1": "3601 Surf Avenue", "Zip": "11224", "addrtype": "street_address", "addrlocat": "ROOFTOP" }, "geometry": { "type": "Point", "coordinates": [ 983631.29713130055, 148257.42782524636 ] } },
{ "type": "Feature", "properties": { "Neighborho": "Morning Side Heights", "Total Sq F": "2747", "Address 1": "16 Arden St", "Zip": "10040", "addrtype": "street_address", "addrlocat": "ROOFTOP" }, "geometry": { "type": "Point", "coordinates": [ 1004391.0363963067, 253126.68901464297 ] } },
{ "type": "Feature", "properties": { "Neighborho": "Morning Side Heights", "Total Sq F": "2747", "Address 1": "12 Arden St", "Zip": "10040", "addrtype": "street_address", "addrlocat": "ROOFTOP" }, "geometry": { "type": "Point", "coordinates": [ 1004408.2155763789, 253091.36243222948 ] } },
{ "type": "Feature", "properties": { "Neighborho": "Morning Site Heights", "Total Sq F": "5328", "Address 1": "75 Wadsworth Terrace", "Zip": "10040", "addrtype": "street_address", "addrlocat": "ROOFTOP" }, "geometry": { "type": "Point", "coordinates": [ 1003399.8313191783, 251519.84394432351 ] } },
{ "type": "Feature", "properties": { "Neighborho": "Morning Side Heights", "Total Sq F": "5552", "Address 1": "510 West 188th Street", "Zip": "10040", "addrtype": "street_address", "addrlocat": "ROOFTOP" }, "geometry": { "type": "Point", "coordinates": [ 1004049.5747846034, 249894.72452583764 ] } },
{ "type": "Feature", "properties": { "Neighborho": "Morrisania", "Total Sq F": "4045", "Address 1": "1061 Intervale  Ave", "Zip": "10459", "addrtype": "street_address", "addrlocat": "ROOFTOP" }, "geometry": { "type": "Point", "coordinates": [ 1012703.2213183998, 239872.03425998354 ] } },
{ "type": "Feature", "properties": { "Neighborho": "Long Island City", "Total Sq F": "24777", "Address 1": "46-02 21st St", "Zip": "11101", "addrtype": "street_address", "addrlocat": "ROOFTOP" }, "geometry": { "type": "Point", "coordinates": [ 998545.82102259248, 210977.46653480153 ] } },
{ "type": "Feature", "properties": { "Neighborho": "South Williamsburg", "Total Sq F": "9261", "Address 1": "106 Gerry Street", "Zip": "11206", "addrtype": "street_address", "addrlocat": "ROOFTOP" }, "geometry": { "type": "Point", "coordinates": [ 999288.66977118375, 195096.21841042268 ] } },
{ "type": "Feature", "properties": { "Neighborho": "South Williamsburg", "Total Sq F": "9800", "Address 1": "41 Whipple Street", "Zip": "11206", "addrtype": "street_address", "addrlocat": "ROOFTOP" }, "geometry": { "type": "Point", "coordinates": [ 999520.80627399613, 194780.41637052709 ] } },
{ "type": "Feature", "properties": { "Neighborho": "Carol Gardens", "Total Sq F": "15246", "Address 1": "155 3rd Street", "Zip": "11231", "addrtype": "street_address", "addrlocat": "ROOFTOP" }, "geometry": { "type": "Point", "coordinates": [ 986901.91926174471, 185872.06401778865 ] } },
{ "type": "Feature", "properties": { "Neighborho": "Long Island City", "Total Sq F": "60000", "Address 1": "45-20 33rd Street", "Zip": "11101", "addrtype": "street_address", "addrlocat": "ROOFTOP" }, "geometry": { "type": "Point", "coordinates": [ 1003106.430617617, 210332.07001310584 ] } },
{ "type": "Feature", "properties": { "Neighborho": "Crown Heights\/Bedsty", "Total Sq F": "2210", "Address 1": "1344-1346 Bergen Street", "Zip": "11213", "addrtype": "street_address", "addrlocat": "ROOFTOP" }, "geometry": { "type": "Point", "coordinates": [ 1000841.6953002178, 185313.49399137244 ] } },
{ "type": "Feature", "properties": { "Neighborho": "Crown Heights\/Bedsty", "Total Sq F": "3012", "Address 1": "869 Eastern Pkwy", "Zip": "11213", "addrtype": "street_address", "addrlocat": "ROOFTOP" }, "geometry": { "type": "Point", "coordinates": [ 1001008.4514383738, 183272.20251770868 ] } },
{ "type": "Feature", "properties": { "Neighborho": "Crown Heights\/Bedsty", "Total Sq F": "2016", "Address 1": "732 Franklin Ave", "Zip": "11238", "addrtype": "street_address", "addrlocat": "ROOFTOP" }, "geometry": { "type": "Point", "coordinates": [ 996122.59655846981, 184688.49300340691 ] } },
{ "type": "Feature", "properties": { "Neighborho": "Crown Heights\/Bedsty", "Total Sq F": "2016", "Address 1": "734 Franklin Ave", "Zip": "11238", "addrtype": "street_address", "addrlocat": "ROOFTOP" }, "geometry": { "type": "Point", "coordinates": [ 996115.67478066124, 184661.89363559248 ] } },
{ "type": "Feature", "properties": { "Neighborho": "Prospect Heights", "Total Sq F": "2048", "Address 1": "451 Prospect Pl", "Zip": "11238", "addrtype": "street_address", "addrlocat": "ROOFTOP" }, "geometry": { "type": "Point", "coordinates": [ 994983.46565165673, 185689.50254268979 ] } },
{ "type": "Feature", "properties": { "Neighborho": "East New York", "Total Sq F": "2438", "Address 1": "171 Milford Street", "Zip": "11208", "addrtype": "street_address", "addrlocat": "ROOFTOP" }, "geometry": { "type": "Point", "coordinates": [ 1018373.930662115, 185373.72518957785 ] } },
{ "type": "Feature", "properties": { "Neighborho": "Crown Heights\/Bedsty", "Total Sq F": "1175", "Address 1": "1600 Pacific Ave", "Zip": "11213", "addrtype": "street_address", "addrlocat": "ROOFTOP" }, "geometry": { "type": "Point", "coordinates": [ 1001953.9124563491, 185819.27498919715 ] } },
{ "type": "Feature", "properties": { "Neighborho": "Crown Heights\/Bedsty", "Total Sq F": "2145", "Address 1": "319 Albany Avenue", "Zip": "11213", "addrtype": "street_address", "addrlocat": "ROOFTOP" }, "geometry": { "type": "Point", "coordinates": [ 1001125.9889189594, 183271.95596564261 ] } },
{ "type": "Feature", "properties": { "Neighborho": "Crown Heights\/Bedsty", "Total Sq F": "2875", "Address 1": "1445 Pacific Street", "Zip": "11216", "addrtype": "street_address", "addrlocat": "ROOFTOP" }, "geometry": { "type": "Point", "coordinates": [ 999877.25646261673, 186138.82426842858 ] } },
{ "type": "Feature", "properties": { "Neighborho": "East New York", "Total Sq F": "1374", "Address 1": "581 Ashford St", "Zip": "11207", "addrtype": "street_address", "addrlocat": "RANGE_INTERPOLATED" }, "geometry": { "type": "Point", "coordinates": [ 1016564.1842071258, 182547.73940359327 ] } },
{ "type": "Feature", "properties": { "Neighborho": "East New York", "Total Sq F": "1200", "Address 1": "950 Dumont Ave", "Zip": "11207", "addrtype": "street_address", "addrlocat": "ROOFTOP" }, "geometry": { "type": "Point", "coordinates": [ 1016616.2921042216, 182561.6168046995 ] } },
{ "type": "Feature", "properties": { "Neighborho": "East New York", "Total Sq F": "1200", "Address 1": "954 Dumont Ave", "Zip": "11207", "addrtype": "street_address", "addrlocat": "ROOFTOP" }, "geometry": { "type": "Point", "coordinates": [ 1016641.2526458255, 182566.7506631146 ] } },
{ "type": "Feature", "properties": { "Neighborho": "East New York", "Total Sq F": "1300", "Address 1": "956 Dumont Ave", "Zip": "11207", "addrtype": "street_address", "addrlocat": "ROOFTOP" }, "geometry": { "type": "Point", "coordinates": [ 1016666.2136629123, 182571.52021921982 ] } },
{ "type": "Feature", "properties": { "Neighborho": "East New York", "Total Sq F": "1300", "Address 1": "960 Dumont Ave", "Zip": "11207", "addrtype": "street_address", "addrlocat": "ROOFTOP" }, "geometry": { "type": "Point", "coordinates": [ 1016691.1775884688, 182574.10383317387 ] } },
{ "type": "Feature", "properties": { "Neighborho": "East New York", "Total Sq F": "2126", "Address 1": "676 Cleveland Street", "Zip": "11208", "addrtype": "street_address", "addrlocat": "RANGE_INTERPOLATED" }, "geometry": { "type": "Point", "coordinates": [ 1016779.0567613295, 182620.01741682331 ] } },
{ "type": "Feature", "properties": { "Neighborho": "Bushwick", "Total Sq F": "1500", "Address 1": "811 Knickerbocker Ave", "Zip": "11207", "addrtype": "street_address", "addrlocat": "ROOFTOP" }, "geometry": { "type": "Point", "coordinates": [ 1010044.1314341817, 191625.54518208388 ] } },
{ "type": "Feature", "properties": { "Neighborho": "Bushwick", "Total Sq F": "2000", "Address 1": "309 Eldert", "Zip": "11237", "addrtype": "street_address", "addrlocat": "ROOFTOP" }, "geometry": { "type": "Point", "coordinates": [ 1009985.7211827864, 191790.52454346785 ] } },
{ "type": "Feature", "properties": { "Neighborho": "East New York", "Total Sq F": "2333", "Address 1": "436 Logan", "Zip": "11208", "addrtype": "street_address", "addrlocat": "ROOFTOP" }, "geometry": { "type": "Point", "coordinates": [ 1018469.3339540499, 185405.19165362298 ] } },
{ "type": "Feature", "properties": { "Neighborho": "East New York", "Total Sq F": "2340", "Address 1": "781 Belmont", "Zip": "11208", "addrtype": "street_address", "addrlocat": "ROOFTOP" }, "geometry": { "type": "Point", "coordinates": [ 1017264.4913181169, 184487.96617079034 ] } },
{ "type": "Feature", "properties": { "Neighborho": "Manhattan", "Total Sq F": "17096", "Address 1": "102 Bradhurst Ave", "Zip": "10039", "addrtype": "street_address", "addrlocat": "ROOFTOP" }, "geometry": { "type": "Point", "coordinates": [ 1000381.359641487, 239700.61463057643 ] } },
{ "type": "Feature", "properties": { "Neighborho": "Long Island City", "Total Sq F": "3100", "Address 1": "33-38 10th Street", "Zip": "11106", "addrtype": "street_address", "addrlocat": "ROOFTOP" }, "geometry": { "type": "Point", "coordinates": [ 1001448.6579062182, 218511.41683886931 ] } },
{ "type": "Feature", "properties": { "Neighborho": "Kingsbridge Heights", "Total Sq F": "1008", "Address 1": "103 East 196th Street", "Zip": "10468", "addrtype": "street_address", "addrlocat": "ROOFTOP" }, "geometry": { "type": "Point", "coordinates": [ 1013628.917978358, 255722.71877017745 ] } },
{ "type": "Feature", "properties": { "Neighborho": "Harlem", "Total Sq F": "16600", "Address 1": "4-20 E. 117th Street", "Zip": "10035", "addrtype": "street_address", "addrlocat": "RANGE_INTERPOLATED" }, "geometry": { "type": "Point", "coordinates": [ 999430.80319716642, 231102.58699956487 ] } },
{ "type": "Feature", "properties": { "Neighborho": "Mott Haven", "Total Sq F": "4100", "Address 1": "413-415 East 146th Street", "Zip": "10455", "addrtype": "street_address", "addrlocat": "RANGE_INTERPOLATED" }, "geometry": { "type": "Point", "coordinates": [ 1006829.6991390235, 235790.20464759163 ] } },
{ "type": "Feature", "properties": { "Neighborho": "Mott Haven", "Total Sq F": "4100", "Address 1": "409-411 East 146th Street", "Zip": "10455", "addrtype": "street_address", "addrlocat": "RANGE_INTERPOLATED" }, "geometry": { "type": "Point", "coordinates": [ 1006771.0414850303, 235822.32095885585 ] } },
{ "type": "Feature", "properties": { "Neighborho": "Mott Haven", "Total Sq F": "6000", "Address 1": "455 East 146th Street", "Zip": "10455", "addrtype": "street_address", "addrlocat": "ROOFTOP" }, "geometry": { "type": "Point", "coordinates": [ 1007234.540050831, 235662.88527780696 ] } },
{ "type": "Feature", "properties": { "Neighborho": "Mott Haven", "Total Sq F": "12126", "Address 1": "480-490 East 143th Street", "Zip": "10454", "addrtype": "street_address", "addrlocat": "ROOFTOP" }, "geometry": { "type": "Point", "coordinates": [ 1006985.9367839225, 234778.44423765439 ] } },
{ "type": "Feature", "properties": { "Neighborho": "Mott Haven", "Total Sq F": "4500", "Address 1": "521-525 East 145th Street", "Zip": "10454", "addrtype": "street_address", "addrlocat": "RANGE_INTERPOLATED" }, "geometry": { "type": "Point", "coordinates": [ 1007622.9719209126, 235131.90913514793 ] } },
{ "type": "Feature", "properties": { "Neighborho": "Fort Greene", "Total Sq F": "11000", "Address 1": "177 Myrtle Avenue", "Zip": "11201", "addrtype": "street_address", "addrlocat": "ROOFTOP" }, "geometry": { "type": "Point", "coordinates": [ 989193.59840612789, 192057.01755592582 ] } },
{ "type": "Feature", "properties": { "Neighborho": "Brownsville", "Total Sq F": "7375", "Address 1": "1142 Lenox Rd", "Zip": "11212", "addrtype": "street_address", "addrlocat": "ROOFTOP" }, "geometry": { "type": "Point", "coordinates": [ 1006920.2391945656, 179410.67384965665 ] } },
{ "type": "Feature", "properties": { "Neighborho": "Brownsville", "Total Sq F": "5888", "Address 1": "1145 Lenox Rd", "Zip": "11212", "addrtype": "street_address", "addrlocat": "ROOFTOP" }, "geometry": { "type": "Point", "coordinates": [ 1006939.6907589062, 179675.74068966237 ] } },
{ "type": "Feature", "properties": { "Neighborho": "Bronx", "Total Sq F": "3500", "Address 1": "411 east 136th Street", "Zip": "10454", "addrtype": "street_address", "addrlocat": "ROOFTOP" }, "geometry": { "type": "Point", "coordinates": [ 1005499.7832004227, 233541.08762975654 ] } },
{ "type": "Feature", "properties": { "Neighborho": "Bronx", "Total Sq F": "10700", "Address 1": "416 east 137th street", "Zip": "10454", "addrtype": "street_address", "addrlocat": "ROOFTOP" }, "geometry": { "type": "Point", "coordinates": [ 1005617.8216395269, 233638.97901759151 ] } },
{ "type": "Feature", "properties": { "Neighborho": "Bronx", "Total Sq F": "3375", "Address 1": "520 144th Street", "Zip": "10454", "addrtype": "street_address", "addrlocat": "ROOFTOP" }, "geometry": { "type": "Point", "coordinates": [ 1007418.0241332788, 234893.80116242261 ] } },
{ "type": "Feature", "properties": { "Neighborho": "Bronx", "Total Sq F": "3375", "Address 1": "530 144th Street", "Zip": "10454", "addrtype": "street_address", "addrlocat": "ROOFTOP" }, "geometry": { "type": "Point", "coordinates": [ 1007489.3338237597, 234863.4109270979 ] } },
{ "type": "Feature", "properties": { "Neighborho": "Bronx", "Total Sq F": "3375", "Address 1": "540 144th Street", "Zip": "10454", "addrtype": "street_address", "addrlocat": "ROOFTOP" }, "geometry": { "type": "Point", "coordinates": [ 1007559.8972997254, 234831.96361059582 ] } },
{ "type": "Feature", "properties": { "Neighborho": "Bronx", "Total Sq F": "3000", "Address 1": "550 144th Street", "Zip": "10454", "addrtype": "street_address", "addrlocat": "ROOFTOP" }, "geometry": { "type": "Point", "coordinates": [ 1007668.3987157971, 234786.45331426556 ] } },
{ "type": "Feature", "properties": { "Neighborho": "Bronx", "Total Sq F": "3000", "Address 1": "560 144th Street", "Zip": "10454", "addrtype": "street_address", "addrlocat": "ROOFTOP" }, "geometry": { "type": "Point", "coordinates": [ 1007738.5725958541, 234757.59292612795 ] } },
{ "type": "Feature", "properties": { "Neighborho": "Bronx", "Total Sq F": "1700", "Address 1": "445 146th Street", "Zip": "10455", "addrtype": "street_address", "addrlocat": "ROOFTOP" }, "geometry": { "type": "Point", "coordinates": [ 1007129.049219575, 235661.76537121405 ] } },
{ "type": "Feature", "properties": { "Neighborho": "Bronx", "Total Sq F": "8650", "Address 1": "510\/512 E 146th Street", "Zip": "10455", "addrtype": "street_address", "addrlocat": "ROOFTOP" }, "geometry": { "type": "Point", "coordinates": [ 1007587.9932181691, 235379.62382835883 ] } },
{ "type": "Feature", "properties": { "Neighborho": "Bronx", "Total Sq F": "8300", "Address 1": "511\/513 E 146th Street", "Zip": "10455", "addrtype": "street_address", "addrlocat": "ROOFTOP" }, "geometry": { "type": "Point", "coordinates": [ 1007614.6914909587, 235451.71517753814 ] } },
{ "type": "Feature", "properties": { "Neighborho": "Bronx", "Total Sq F": "3800", "Address 1": "521 E 146th Street", "Zip": "10455", "addrtype": "street_address", "addrlocat": "ROOFTOP" }, "geometry": { "type": "Point", "coordinates": [ 1007686.1953530379, 235419.46758899366 ] } },
{ "type": "Feature", "properties": { "Neighborho": "Bronx", "Total Sq F": "3800", "Address 1": "525 E 146th Street", "Zip": "10455", "addrtype": "street_address", "addrlocat": "ROOFTOP" }, "geometry": { "type": "Point", "coordinates": [ 1007733.6605640037, 235399.14713567976 ] } },
{ "type": "Feature", "properties": { "Neighborho": "Bronx", "Total Sq F": "8300", "Address 1": "530\/528 E 146th Street", "Zip": "10455", "addrtype": "street_address", "addrlocat": "ROOFTOP" }, "geometry": { "type": "Point", "coordinates": [ 1007724.6287635617, 235321.35268029268 ] } },
{ "type": "Feature", "properties": { "Neighborho": "Bronx", "Total Sq F": "7400", "Address 1": "537\/545 E 146th Street", "Zip": "10455", "addrtype": "street_address", "addrlocat": "ROOFTOP" }, "geometry": { "type": "Point", "coordinates": [ 1007857.226741265, 235373.47214138607 ] } },
{ "type": "Feature", "properties": { "Neighborho": "Bronx", "Total Sq F": "10000", "Address 1": "505\/509\/511\/517 144th Street", "Zip": "10454", "addrtype": "street_address", "addrlocat": "ROOFTOP" }, "geometry": { "type": "Point", "coordinates": [ 1007438.9004911999, 235005.08927310907 ] } },
{ "type": "Feature", "properties": { "Neighborho": "Long Island City", "Total Sq F": "7000", "Address 1": "34-16 Astoria Blvd S", "Zip": "11103", "addrtype": "street_address", "addrlocat": "RANGE_INTERPOLATED" }, "geometry": { "type": "Point", "coordinates": [ 1007696.3076992322, 219655.04538690433 ] } },
{ "type": "Feature", "properties": { "Neighborho": "Harlem", "Total Sq F": "18032", "Address 1": "50 West 139th st", "Zip": "10037", "addrtype": "street_address", "addrlocat": "ROOFTOP" }, "geometry": { "type": "Point", "coordinates": [ 1001495.5017440285, 236540.21807066281 ] } },
{ "type": "Feature", "properties": { "Neighborho": "Harlem", "Total Sq F": "15352", "Address 1": "560 Lenox Avenue", "Zip": "10037", "addrtype": "street_address", "addrlocat": "RANGE_INTERPOLATED" }, "geometry": { "type": "Point", "coordinates": [ 1001041.380354079, 236587.7730794141 ] } },
{ "type": "Feature", "properties": { "Neighborho": "Bedford Stuyvesant", "Total Sq F": "4896", "Address 1": "218 Gates Avenue", "Zip": "11216", "addrtype": "street_address", "addrlocat": "ROOFTOP" }, "geometry": { "type": "Point", "coordinates": [ 995775.28889584239, 188870.63868940226 ] } },
{ "type": "Feature", "properties": { "Neighborho": "Bedford Stuyvesant", "Total Sq F": "6645", "Address 1": "210 Kosciusko Avenue", "Zip": "11216", "addrtype": "street_address", "addrlocat": "ROOFTOP" }, "geometry": { "type": "Point", "coordinates": [ 999102.77784612868, 191029.27432037587 ] } },
{ "type": "Feature", "properties": { "Neighborho": "Bedford Stuyvesant", "Total Sq F": "6645", "Address 1": "686 Lafayette Avenue", "Zip": "11216", "addrtype": "street_address", "addrlocat": "ROOFTOP" }, "geometry": { "type": "Point", "coordinates": [ 999171.02940345393, 190888.10207782578 ] } },
{ "type": "Feature", "properties": { "Neighborho": "East New York", "Total Sq F": "3226", "Address 1": "1900 Sterling Place", "Zip": "11233", "addrtype": "street_address", "addrlocat": "ROOFTOP" }, "geometry": { "type": "Point", "coordinates": [ 1007729.2801694603, 183552.28849530092 ] } },
{ "type": "Feature", "properties": { "Neighborho": "Hollis", "Total Sq F": "7000", "Address 1": "204-01 Hollis Avenue", "Zip": "11412", "addrtype": "street_address", "addrlocat": "ROOFTOP" }, "geometry": { "type": "Point", "coordinates": [ 1052510.7678634252, 196955.6210530414 ] } },
{ "type": "Feature", "properties": { "Neighborho": "East Corona", "Total Sq F": "8600", "Address 1": "100-01 Northern Blvd", "Zip": "11369", "addrtype": "street_address", "addrlocat": "ROOFTOP" }, "geometry": { "type": "Point", "coordinates": [ 1020780.8856293967, 215343.66569325372 ] } },
{ "type": "Feature", "properties": { "Neighborho": "East Flushing", "Total Sq F": "7400", "Address 1": "196-36 Northern Blvd", "Zip": "11358", "addrtype": "street_address", "addrlocat": "ROOFTOP" }, "geometry": { "type": "Point", "coordinates": [ 1044011.6049489286, 215380.93721508497 ] } },
{ "type": "Feature", "properties": { "Neighborho": "Bayside", "Total Sq F": "8000", "Address 1": "214-20 Northern Blvd", "Zip": "11361", "addrtype": "street_address", "addrlocat": "ROOFTOP" }, "geometry": { "type": "Point", "coordinates": [ 1048419.9641503635, 216288.3093188561 ] } },
{ "type": "Feature", "properties": { "Neighborho": "Astoria", "Total Sq F": "2600", "Address 1": "40-20 Broadway", "Zip": "11103", "addrtype": "street_address", "addrlocat": "ROOFTOP" }, "geometry": { "type": "Point", "coordinates": [ 1006800.0286527742, 215619.35233152661 ] } },
{ "type": "Feature", "properties": { "Neighborho": "Arverne", "Total Sq F": "6000", "Address 1": "312 Beach 54th Street", "Zip": "11692", "addrtype": "street_address", "addrlocat": "ROOFTOP" }, "geometry": { "type": "Point", "coordinates": [ 1044207.65279781, 155449.85159985392 ] } },
{ "type": "Feature", "properties": { "Neighborho": "Oakland Gardens", "Total Sq F": "5000", "Address 1": "79-50 Bell Blvd", "Zip": "11634", "addrtype": "street_address", "addrlocat": "ROOFTOP" }, "geometry": { "type": "Point", "coordinates": [ 1051964.8217631807, 206967.7255201152 ] } },
{ "type": "Feature", "properties": { "Neighborho": "Fresh Meadows", "Total Sq F": "9500", "Address 1": "193-20 Horace Harding Expressway", "Zip": "11365", "addrtype": "street_address", "addrlocat": "ROOFTOP" }, "geometry": { "type": "Point", "coordinates": [ 1044592.4448720862, 209510.26867181915 ] } },
{ "type": "Feature", "properties": { "Neighborho": "Jamaica", "Total Sq F": "7900", "Address 1": "92-06 156th Street", "Zip": "11414", "addrtype": "street_address", "addrlocat": "RANGE_INTERPOLATED" }, "geometry": { "type": "Point", "coordinates": [ 1028140.1508823828, 181262.72212939238 ] } },
{ "type": "Feature", "properties": { "Neighborho": "Bronx", "Total Sq F": "5200", "Address 1": "5555 Mosholu Ave", "Zip": "10471", "addrtype": "street_address", "addrlocat": "ROOFTOP" }, "geometry": { "type": "Point", "coordinates": [ 1010937.2655817904, 268549.16577108152 ] } },
{ "type": "Feature", "properties": { "Neighborho": "Bronx", "Total Sq F": "6000", "Address 1": "812 Edgewater Rd", "Zip": "10474", "addrtype": "street_address", "addrlocat": "ROOFTOP" }, "geometry": { "type": "Point", "coordinates": [ 1016625.3557296492, 237270.12665071833 ] } },
{ "type": "Feature", "properties": { "Neighborho": "Briarwood", "Total Sq F": "15282", "Address 1": "85-70 148th st", "Zip": "11435", "addrtype": "street_address", "addrlocat": "ROOFTOP" }, "geometry": { "type": "Point", "coordinates": [ 1036588.0544388574, 197574.72490488488 ] } },
{ "type": "Feature", "properties": { "Neighborho": "Bronx", "Total Sq F": "3200", "Address 1": "243 E204th St", "Zip": "10458", "addrtype": "street_address", "addrlocat": "ROOFTOP" }, "geometry": { "type": "Point", "coordinates": [ 1016223.4767389488, 257911.09484804783 ] } },
{ "type": "Feature", "properties": { "Neighborho": "Sunnyside", "Total Sq F": "24000", "Address 1": "39-01 Queens Blvd", "Zip": "11104", "addrtype": "street_address", "addrlocat": "ROOFTOP" }, "geometry": { "type": "Point", "coordinates": [ 1004841.7606265949, 210556.63351122648 ] } },
{ "type": "Feature", "properties": { "Neighborho": "Sunnyside", "Total Sq F": "14000", "Address 1": "43-31 39th Street", "Zip": "11104", "addrtype": "street_address", "addrlocat": "ROOFTOP" }, "geometry": { "type": "Point", "coordinates": [ 1004852.7024328171, 210723.94408548577 ] } },
{ "type": "Feature", "properties": { "Neighborho": "Sunset Park", "Total Sq F": "9327", "Address 1": "705 41st Street", "Zip": "11232", "addrtype": "street_address", "addrlocat": "ROOFTOP" }, "geometry": { "type": "Point", "coordinates": [ 984153.84641758713, 175148.83407588839 ] } },
{ "type": "Feature", "properties": { "Neighborho": "Harlem", "Total Sq F": "3315", "Address 1": "118-124 E111th Street", "Zip": "10029", "addrtype": "street_address", "addrlocat": "RANGE_INTERPOLATED" }, "geometry": { "type": "Point", "coordinates": [ 999569.86162732402, 229187.87570649441 ] } },
{ "type": "Feature", "properties": { "Neighborho": "Concourse", "Total Sq F": "4000", "Address 1": "1413 Sheridan Ave", "Zip": "10456", "addrtype": "street_address", "addrlocat": "ROOFTOP" }, "geometry": { "type": "Point", "coordinates": [ 1008400.5305141002, 244926.11336180716 ] } },
{ "type": "Feature", "properties": { "Neighborho": "Concourse", "Total Sq F": "7500", "Address 1": "1347 Morris Avenue", "Zip": "10456", "addrtype": "street_address", "addrlocat": "ROOFTOP" }, "geometry": { "type": "Point", "coordinates": [ 1008530.8399273647, 244225.69555168063 ] } },
{ "type": "Feature", "properties": { "Neighborho": "Murray Hill", "Total Sq F": "9427", "Address 1": "14 E. 28th St", "Zip": "10016", "addrtype": "street_address", "addrlocat": "ROOFTOP" }, "geometry": { "type": "Point", "coordinates": [ 987985.13004667393, 210401.615674617 ] } },
{ "type": "Feature", "properties": { "Neighborho": "Flatiron", "Total Sq F": "2125", "Address 1": "137 W14th St", "Zip": "10011", "addrtype": "street_address", "addrlocat": "ROOFTOP" }, "geometry": { "type": "Point", "coordinates": [ 984704.47918309399, 208266.1298256419 ] } },
{ "type": "Feature", "properties": { "Neighborho": "Harlem", "Total Sq F": "1000", "Address 1": "216 West 112th Street", "Zip": "10026", "addrtype": "street_address", "addrlocat": "ROOFTOP" }, "geometry": { "type": "Point", "coordinates": [ 996603.00641898415, 231039.37272668991 ] } },
{ "type": "Feature", "properties": { "Neighborho": "Bowery", "Total Sq F": "3946", "Address 1": "184 Eldridge St", "Zip": "10002", "addrtype": "street_address", "addrlocat": "ROOFTOP" }, "geometry": { "type": "Point", "coordinates": [ 986863.09274783381, 201793.95947306239 ] } },
{ "type": "Feature", "properties": { "Neighborho": "East New York", "Total Sq F": "3540", "Address 1": "508 Williams Avenue", "Zip": "11207", "addrtype": "street_address", "addrlocat": "ROOFTOP" }, "geometry": { "type": "Point", "coordinates": [ 1012589.2521933978, 180964.10723298931 ] } },
{ "type": "Feature", "properties": { "Neighborho": "East New York", "Total Sq F": "3540", "Address 1": "502 Williams Avenue", "Zip": "11207", "addrtype": "street_address", "addrlocat": "ROOFTOP" }, "geometry": { "type": "Point", "coordinates": [ 1012580.6234469077, 181012.18851469169 ] } },
{ "type": "Feature", "properties": { "Neighborho": "East New York", "Total Sq F": "3540", "Address 1": "496 Williams Avenue", "Zip": "11207", "addrtype": "street_address", "addrlocat": "ROOFTOP" }, "geometry": { "type": "Point", "coordinates": [ 1012573.0553451417, 181054.80611087955 ] } },
{ "type": "Feature", "properties": { "Neighborho": "East New York", "Total Sq F": "3540", "Address 1": "490 Williams Avenue", "Zip": "11207", "addrtype": "street_address", "addrlocat": "ROOFTOP" }, "geometry": { "type": "Point", "coordinates": [ 1012565.2371568126, 181097.78774696149 ] } },
{ "type": "Feature", "properties": { "Neighborho": "East New York", "Total Sq F": "3540", "Address 1": "486 Williams Ave", "Zip": "11207", "addrtype": "street_address", "addrlocat": "ROOFTOP" }, "geometry": { "type": "Point", "coordinates": [ 1012557.4185715911, 181141.13371402165 ] } },
{ "type": "Feature", "properties": { "Neighborho": "Astoria", "Total Sq F": "8000", "Address 1": "2112 30th Rd", "Zip": "11102", "addrtype": "street_address", "addrlocat": "ROOFTOP" }, "geometry": { "type": "Point", "coordinates": [ 1004149.8286917382, 219235.84531162775 ] } },
{ "type": "Feature", "properties": { "Neighborho": "Upper West Side", "Total Sq F": "4622", "Address 1": "149 Manhattan Ave", "Zip": "10025", "addrtype": "street_address", "addrlocat": "RANGE_INTERPOLATED" }, "geometry": { "type": "Point", "coordinates": [ 995007.00594322477, 230425.18147085642 ] } },
{ "type": "Feature", "properties": { "Neighborho": "Upper West Side", "Total Sq F": "3600", "Address 1": "149 W108", "Zip": "10025", "addrtype": "street_address", "addrlocat": "ROOFTOP" }, "geometry": { "type": "Point", "coordinates": [ 994319.3467190743, 231294.08026925381 ] } },
{ "type": "Feature", "properties": { "Neighborho": "Upper West Side", "Total Sq F": "5590", "Address 1": "930 West end Ave", "Zip": "10025", "addrtype": "street_address", "addrlocat": "ROOFTOP" }, "geometry": { "type": "Point", "coordinates": [ 992967.15481060685, 231180.24833459122 ] } },
{ "type": "Feature", "properties": { "Neighborho": "Harlem", "Total Sq F": "3500", "Address 1": "109 W129th st", "Zip": "10027", "addrtype": "street_address", "addrlocat": "ROOFTOP" }, "geometry": { "type": "Point", "coordinates": [ 999729.22989514098, 234661.56722213054 ] } },
{ "type": "Feature", "properties": { "Neighborho": "Long Island City", "Total Sq F": "3000", "Address 1": "43-26 12th Street", "Zip": "11101", "addrtype": "street_address", "addrlocat": "ROOFTOP" }, "geometry": { "type": "Point", "coordinates": [ 998654.27941564005, 212836.35349068572 ] } },
{ "type": "Feature", "properties": { "Neighborho": "Flushing", "Total Sq F": "8625", "Address 1": "138-46 Northern Blvd", "Zip": "11354", "addrtype": "street_address", "addrlocat": "ROOFTOP" }, "geometry": { "type": "Point", "coordinates": [ 1032330.9998715434, 217634.36360717323 ] } },
{ "type": "Feature", "properties": { "Neighborho": "Park Slope", "Total Sq F": "3500", "Address 1": "357 9th Street", "Zip": "11215", "addrtype": "street_address", "addrlocat": "ROOFTOP" }, "geometry": { "type": "Point", "coordinates": [ 988547.58196365391, 182823.85342806237 ] } },
{ "type": "Feature", "properties": { "Neighborho": "Jamaica", "Total Sq F": "10810", "Address 1": "238-10 Hillsdale Ave", "Zip": "11427", "addrtype": "street_address", "addrlocat": "RANGE_INTERPOLATED" }, "geometry": { "type": "Point", "coordinates": [ 1052511.736491468, 203474.72448010245 ] } },
{ "type": "Feature", "properties": { "Neighborho": "Bedford Stuyvesant", "Total Sq F": "14300", "Address 1": "1121 Bedford Ave", "Zip": "11216", "addrtype": "street_address", "addrlocat": "ROOFTOP" }, "geometry": { "type": "Point", "coordinates": [ 996932.35287924181, 188944.37243870631 ] } },
{ "type": "Feature", "properties": { "Neighborho": "Long Island City", "Total Sq F": "22000", "Address 1": "32-23 Queens Blvd", "Zip": "11101", "addrtype": "street_address", "addrlocat": "RANGE_INTERPOLATED" }, "geometry": { "type": "Point", "coordinates": [ 1002996.7949079687, 210675.33159960792 ] } },
{ "type": "Feature", "properties": { "Neighborho": "Boro Park", "Total Sq F": "4815", "Address 1": "4912 14th Avenue", "Zip": "11219", "addrtype": "street_address", "addrlocat": "ROOFTOP" }, "geometry": { "type": "Point", "coordinates": [ 986899.03589793819, 170075.57685959732 ] } },
{ "type": "Feature", "properties": { "Neighborho": "East Harlem", "Total Sq F": "5042", "Address 1": "206 East 118th Street", "Zip": "10035", "addrtype": "street_address", "addrlocat": "ROOFTOP" }, "geometry": { "type": "Point", "coordinates": [ 1001238.0003784144, 230368.9946178614 ] } },
{ "type": "Feature", "properties": { "Neighborho": "East Harlem", "Total Sq F": "3164", "Address 1": "2295 2nd Avenue", "Zip": "10035", "addrtype": "street_address", "addrlocat": "ROOFTOP" }, "geometry": { "type": "Point", "coordinates": [ 1001622.6044391809, 230130.15401489745 ] } },
{ "type": "Feature", "properties": { "Neighborho": "East Harlem", "Total Sq F": "3120", "Address 1": "251 E. 119th Street", "Zip": "10035", "addrtype": "street_address", "addrlocat": "ROOFTOP" }, "geometry": { "type": "Point", "coordinates": [ 1001771.91137367, 230450.76691380085 ] } }
]
}
